[{"OBJECT_NAME":"STARLINK-34730","OBJECT_ID":"2025-158G","EPOCH":"2026-03-09T13:46:44.323104","MEAN_MOTION":15.05650418,"ECCENTRICITY":0.0001899,"INCLINATION":97.6029,"RA_OF_ASC_NODE":294.0445,"ARG_OF_PERICENTER":87.0605,"MEAN_ANOMALY":273.0839,"EPHEMERIS_TYPE":0,"CLASSIFICATION_TYPE":"U","NORAD_CAT_ID":64938,"ELEMENT_SET_NO":999,"REV_AT_EPOCH":3534,"BSTAR":0.00027579,"MEAN_MOTION_DOT":3.921e-5,"MEAN_MOTION_DDOT":0},{"OBJECT_NAME":"CZ-6A DEB","OBJECT_ID":"2022-151DD","EPOCH":"2026-03-09T17:22:01.111008","MEAN_MOTION":14.86690016,"ECCENTRICITY":0.00876761,"INCLINATION":98.4579,"RA_OF_ASC_NODE":137.3593,"ARG_OF_PERICENTER":94.708,"MEAN_ANOMALY":266.4154,"EPHEMERIS_TYPE":0,"CLASSIFICATION_TYPE":"U","NORAD_CAT_ID":54358,"ELEMENT_SET_NO":999,"REV_AT_EPOCH":17717,"BSTAR":0.0022043381,"MEAN_MOTION_DOT":0.00021004,"MEAN_MOTION_DDOT":0}]
